ONEWEB-0603             
1 54667U 22166AB  26156.80200044  .00000092  00000+0  19178-3 0  9992
2 54667  87.9278 246.2208 0002023  99.9327 260.2036 13.21825547169970
ONEWEB-0604             
1 54668U 22166AC  26156.48743513  .00000006  00000+0 -16343-4 0  9998
2 54668  87.9266 246.2999 0001926 103.2072 256.9277 13.21826631169897
ONEWEB-0605             
1 54669U 22166AD  26155.72374734 -.00000003  00000+0 -39298-4 0  9992
2 54669  87.9260 246.4665 0002659  97.9432 262.2004 13.21824666169868
ONEWEB-0606             
1 54670U 22166AE  26156.50257716  .00000160  00000+0  35578-3 0  9999
2 54670  87.9255 246.3244 0001983 102.8093 257.3263 13.21826630170029
ONEWEB-0607             
1 54671U 22166AF  26156.54460200 -.00000010  00000+0 -56465-4 0  9993
2 54671  87.9265 246.2858 0001951  94.4238 265.7119 13.21828352170007
ONEWEB-0608             
1 54672U 22166AG  26156.47565774  .00000034  00000+0  50115-4 0  9998
2 54672  87.9267 246.2956 0002393  92.2825 267.8583 13.21827236170006
ONEWEB-0610             
1 54673U 22166AH  26155.24431374  .00000020  00000+0  16817-4 0  9997
2 54673  87.9256 246.5560 0002368  86.7076 273.4329 13.21828292169740
ONEWEB-0611             
1 54674U 22166AJ  26156.52442865  .00000071  00000+0  13951-3 0  9998
2 54674  87.9254 246.2982 0002056 104.0032 256.1331 13.21828179169907
ONEWEB-0612             
1 54675U 22166AK  26156.31079756  .00000050  00000+0  89344-4 0  9998
2 54675  87.9266 246.3344 0002135  96.7148 263.4229 13.21824513169867
ONEWEB-0615             
1 54676U 22166AL  26155.68505654  .00000055  00000+0  10117-3 0  9995
2 54676  87.9254 246.4751 0001714 100.1831 259.9496 13.21826093169792
ONEWEB-0655             
1 54677U 22166AM  26156.79695231  .00000089  00000+0  18330-3 0  9992
2 54677  87.9253 246.2550 0001899  91.5005 268.6347 13.21826627169938
ONEWEB-0659             
1 54678U 22166AN  26156.51096067  .00000149  00000+0  32906-3 0  9997
2 54678  87.9258 246.3119 0002054 101.1972 258.9393 13.21828751169989
ONEWEB-0685             
1 54679U 22166AP  26156.51124616  .00000084  00000+0  17302-3 0  9991
2 54679  87.9249 246.3031 0001985  90.2744 269.8617 13.21820022169871
ONEWEB-0712             
1 54680U 22166AQ  26156.43248297  .00000109  00000+0  25043-3 0  9995
2 54680  87.9103 231.1078 0001748  89.0677 271.0654 13.16593753170514
ONEWEB-0714             
1 54681U 22166AR  26156.51602591  .00001120  00000+0  26800-2 0  9991
2 54681  87.9255 246.2986 0001539  89.8671 270.2640 13.21830363169991
ONEWEB-0532             
1 55140U 23004A   26156.33916900 -.00000018  00000+0 -79464-4 0  9999
2 55140  87.9142   8.2220 0002146  91.8306 268.3071 13.17647443166024
ONEWEB-0533             
1 55141U 23004B   26156.48817110 -.00000290  00000+0 -84014-3 0  9997
2 55141  87.8949 352.9979 0001924  84.1533 275.9815 13.12442458166528
ONEWEB-0541             
1 55142U 23004C   26156.35629869 -.00000453  00000+0 -13149-2 0  9997
2 55142  87.8910  23.4117 0001777  90.3550 269.7781 13.11418751164399
ONEWEB-0543             
1 55143U 23004D   26156.47888245 -.00000127  00000+0 -35516-3 0  9997
2 55143  87.9153 337.8008 0001679  85.0847 275.0476 13.18686973168151
ONEWEB-0544             
1 55144U 23004E   26156.47214554  .00000047  00000+0  86651-4 0  9990
2 55144  87.9153 337.8022 0001625  92.5589 267.5729 13.18685744168157
ONEWEB-0560             
1 55145U 23004F   26156.46540563  .00000035  00000+0  55157-4 0  9996
2 55145  87.9163 337.7927 0001504  92.0280 268.1025 13.18685955168162
ONEWEB-0565             
1 55146U 23004G   26156.45865110 -.00000044  00000+0 -14518-3 0  9991
2 55146  87.9150 337.8220 0001773 105.6557 254.4771 13.18686535168152
ONEWEB-0567             
1 55147U 23004H   26156.45191323  .00000008  00000+0 -12116-4 0  9992
2 55147  87.9158 337.8069 0001664 101.7008 258.4311 13.18685992168159
ONEWEB-0569             
1 55148U 23004J   26156.50530124 -.00000031  00000+0 -11973-3 0  9991
2 55148  87.8954 322.5457 0001107 118.2857 241.8384 13.13469836168644
ONEWEB-0570             
1 55149U 23004K   26156.51934396 -.00000199  00000+0 -53676-3 0  9993
2 55149  87.9154 337.7912 0002199  97.1235 263.0147 13.18686906168152
ONEWEB-0571             
1 55150U 23004L   26156.51259911 -.00000087  00000+0 -25338-3 0  9998
2 55150  87.9155 337.7922 0001698 129.2268 230.9015 13.18687492168161
ONEWEB-0572             
1 55151U 23004M   26156.52141147  .00000031  00000+0  46836-4 0  9995
2 55151  87.9139   8.1863 0001845  92.9614 267.1728 13.17648266165943
ONEWEB-0573             
1 55152U 23004N   26156.50586382 -.00000060  00000+0 -18570-3 0  9995
2 55152  87.9158 337.7948 0001671 119.4766 240.6533 13.18687386168153
ONEWEB-0588             
1 55153U 23004P   26156.49911147 -.00000168  00000+0 -45855-3 0  9990
2 55153  87.9155 337.7970 0002225 101.9259 258.2123 13.18687227168159
ONEWEB-0598             
1 55154U 23004Q   26156.33425656 -.00000115  00000+0 -36029-3 0  9994
2 55154  87.8885  23.4291 0001253 108.8564 251.2700 13.11415556164347
