OBJECT_NAME,OBJECT_ID,EPOCH,MEAN_MOTION,ECCENTRICITY,INCLINATION,RA_OF_ASC_NODE,ARG_OF_PERICENTER,MEAN_ANOMALY,EPHEMERIS_TYPE,CLASSIFICATION_TYPE,NORAD_CAT_ID,ELEMENT_SET_NO,REV_AT_EPOCH,BSTAR,MEAN_MOTION_DOT,MEAN_MOTION_DDOT
ONEWEB-0603,2022-166AB,2026-06-05T19:14:52.838016,13.21825547,.0002023,87.9278,246.2208,99.9327,260.2036,0,U,54667,999,16997,.19178E-3,.92E-6,0
ONEWEB-0604,2022-166AC,2026-06-05T11:41:54.395232,13.21826631,.0001926,87.9266,246.2999,103.2072,256.9277,0,U,54668,999,16989,-.16343E-4,.6E-7,0
ONEWEB-0605,2022-166AD,2026-06-04T17:22:11.770176,13.21824666,.0002659,87.9260,246.4665,97.9432,262.2004,0,U,54669,999,16986,-.39298E-4,-.3E-7,0
ONEWEB-0606,2022-166AE,2026-06-05T12:03:42.666624,13.21826630,.0001983,87.9255,246.3244,102.8093,257.3263,0,U,54670,999,17002,.35578E-3,.16E-5,0
ONEWEB-0607,2022-166AF,2026-06-05T13:04:13.612800,13.21828352,.0001951,87.9265,246.2858,94.4238,265.7119,0,U,54671,999,17000,-.56465E-4,-.1E-6,0
ONEWEB-0608,2022-166AG,2026-06-05T11:24:56.828736,13.21827236,.0002393,87.9267,246.2956,92.2825,267.8583,0,U,54672,999,17000,.50115E-4,.34E-6,0
ONEWEB-0610,2022-166AH,2026-06-04T05:51:48.707136,13.21828292,.00023685,87.9256,246.5560,86.7076,273.4329,0,U,54673,999,16974,.16817019E-4,.2E-6,0
ONEWEB-0611,2022-166AJ,2026-06-05T12:35:10.635360,13.21828179,.0002056,87.9254,246.2982,104.0032,256.1331,0,U,54674,999,16990,.13951E-3,.71E-6,0
ONEWEB-0612,2022-166AK,2026-06-05T07:27:32.909184,13.21824513,.0002135,87.9266,246.3344,96.7148,263.4229,0,U,54675,999,16986,.89344E-4,.5E-6,0
ONEWEB-0615,2022-166AL,2026-06-04T16:26:28.885056,13.21826093,.0001714,87.9254,246.4751,100.1831,259.9496,0,U,54676,999,16979,.10117E-3,.55E-6,0
ONEWEB-0655,2022-166AM,2026-06-05T19:07:36.679584,13.21826627,.0001899,87.9253,246.2550,91.5005,268.6347,0,U,54677,999,16993,.1833E-3,.89E-6,0
ONEWEB-0659,2022-166AN,2026-06-05T12:15:47.001888,13.21828751,.0002054,87.9258,246.3119,101.1972,258.9393,0,U,54678,999,16998,.32906E-3,.149E-5,0
ONEWEB-0685,2022-166AP,2026-06-05T12:16:11.668224,13.21820022,.0001985,87.9249,246.3031,90.2744,269.8617,0,U,54679,999,16987,.17302E-3,.84E-6,0
ONEWEB-0712,2022-166AQ,2026-06-05T10:22:46.528608,13.16593753,.0001748,87.9103,231.1078,89.0677,271.0654,0,U,54680,999,17051,.25043E-3,.109E-5,0
ONEWEB-0714,2022-166AR,2026-06-05T12:23:04.638624,13.21830363,.0001539,87.9255,246.2986,89.8671,270.2640,0,U,54681,999,16999,.268E-2,.112E-4,0
ONEWEB-0532,2023-004A,2026-06-05T08:08:24.201600,13.17647443,.0002146,87.9142,8.2220,91.8306,268.3071,0,U,55140,999,16602,-.79464E-4,-.18E-6,0
ONEWEB-0533,2023-004B,2026-06-05T11:42:57.983040,13.12442458,.0001924,87.8949,352.9979,84.1533,275.9815,0,U,55141,999,16652,-.84014E-3,-.29E-5,0
ONEWEB-0541,2023-004C,2026-06-05T08:33:04.206816,13.11418751,.0001777,87.8910,23.4117,90.3550,269.7781,0,U,55142,999,16439,-.13149E-2,-.453E-5,0
ONEWEB-0543,2023-004D,2026-06-05T11:29:35.443680,13.18686973,.0001679,87.9153,337.8008,85.0847,275.0476,0,U,55143,999,16815,-.35516E-3,-.127E-5,0
ONEWEB-0544,2023-004E,2026-06-05T11:19:53.374656,13.18685744,.0001625,87.9153,337.8022,92.5589,267.5729,0,U,55144,999,16815,.86651E-4,.47E-6,0
ONEWEB-0560,2023-004F,2026-06-05T11:10:11.046432,13.18685955,.0001504,87.9163,337.7927,92.0280,268.1025,0,U,55145,999,16816,.55157E-4,.35E-6,0
ONEWEB-0565,2023-004G,2026-06-05T11:00:27.455040,13.18686535,.0001773,87.9150,337.8220,105.6557,254.4771,0,U,55146,999,16815,-.14518E-3,-.44E-6,0
ONEWEB-0567,2023-004H,2026-06-05T10:50:45.303072,13.18685992,.0001664,87.9158,337.8069,101.7008,258.4311,0,U,55147,999,16815,-.12116E-4,.8E-7,0
ONEWEB-0569,2023-004J,2026-06-05T12:07:38.027136,13.13469836,.0001107,87.8954,322.5457,118.2857,241.8384,0,U,55148,999,16864,-.11973E-3,-.31E-6,0
ONEWEB-0570,2023-004K,2026-06-05T12:27:51.318144,13.18686906,.0002199,87.9154,337.7912,97.1235,263.0147,0,U,55149,999,16815,-.53676E-3,-.199E-5,0
ONEWEB-0571,2023-004L,2026-06-05T12:18:08.563104,13.18687492,.0001698,87.9155,337.7922,129.2268,230.9015,0,U,55150,999,16816,-.25338E-3,-.87E-6,0
ONEWEB-0572,2023-004M,2026-06-05T12:30:49.951008,13.17648266,.0001845,87.9139,8.1863,92.9614,267.1728,0,U,55151,999,16594,.46836E-4,.31E-6,0
ONEWEB-0573,2023-004N,2026-06-05T12:08:26.634048,13.18687386,.0001671,87.9158,337.7948,119.4766,240.6533,0,U,55152,999,16815,-.1857E-3,-.6E-6,0
ONEWEB-0588,2023-004P,2026-06-05T11:58:43.231008,13.18687227,.0002225,87.9155,337.7970,101.9259,258.2123,0,U,55153,999,16815,-.45855E-3,-.168E-5,0
ONEWEB-0598,2023-004Q,2026-06-05T08:01:19.766784,13.11415556,.0001253,87.8885,23.4291,108.8564,251.2700,0,U,55154,999,16434,-.36029E-3,-.115E-5,0
